[{"OBJECT_NAME":"TIANMU-1 20","OBJECT_ID":"2023-208B","EPOCH":"2026-03-09T21:50:45.859200","MEAN_MOTION":15.31029249,"ECCENTRICITY":0.00061925,"INCLINATION":97.4323,"RA_OF_ASC_NODE":185.4313,"ARG_OF_PERICENTER":324.1763,"MEAN_ANOMALY":35.9062,"EPHEMERIS_TYPE":0,"CLASSIFICATION_TYPE":"U","NORAD_CAT_ID":58661,"ELEMENT_SET_NO":999,"REV_AT_EPOCH":12222,"BSTAR":0.0003681641,"MEAN_MOTION_DOT":0.00010969,"MEAN_MOTION_DDOT":0},{"OBJECT_NAME":"STARLINK-34602","OBJECT_ID":"2025-189L","EPOCH":"2026-03-09T15:36:49.197024","MEAN_MOTION":15.30194042,"ECCENTRICITY":9.62e-5,"INCLINATION":53.1598,"RA_OF_ASC_NODE":206.7178,"ARG_OF_PERICENTER":91.0813,"MEAN_ANOMALY":269.0298,"EPHEMERIS_TYPE":0,"CLASSIFICATION_TYPE":"U","NORAD_CAT_ID":65333,"ELEMENT_SET_NO":999,"REV_AT_EPOCH":3110,"BSTAR":0.00093235868,"MEAN_MOTION_DOT":0.00027351,"MEAN_MOTION_DDOT":0}]
